CUTE-1 (CO-55)          
1 27844U 03031E   25064.55396050  .00000657  00000+0  30577-3 0  9994
2 27844  98.6796  74.0591 0010840 104.9928 255.2451 14.23854449124975
CUBESAT XI-IV (CO-57)   
1 27848U 03031J   25064.95016953  .00000542  00000+0  25886-3 0  9993
2 27848  98.6823  74.5268 0010624 119.1293 241.0950 14.23210200124810
CUBESAT XI-V            
1 28895U 05043F   25064.86366563  .00003324  00000+0  55773-3 0  9995
2 28895  98.2324 208.1404 0014064 248.3381 111.6327 14.70330288 32872
CUTE-1.7+APD II (CO-65) 
1 32785U 08021C   25064.84879663  .00009636  00000+0  72600-3 0  9995
2 32785  97.7773  35.4692 0010825 163.3952 196.7629 15.02652492914764
AAUSAT-II               
1 32788U 08021F   25064.90600456  .00115826  00000+0  18473-2 0  9993
2 32788  97.6071  57.6658 0004369  86.6977 273.4775 15.52805684918470
CANX-2                  
1 32790U 08021H   25064.44849266  .00008420  00000+0  67658-3 0  9990
2 32790  97.8016  33.6188 0012741 157.0662 203.1132 15.00218722914470
SEEDS II (CO-66)        
1 32791U 08021J   25064.66971015  .00020195  00000+0  10883-2 0  9993
2 32791  97.7215  42.8600 0006710 119.3394 240.8509 15.14811675916035
SWISSCUBE               
1 35932U 09051B   25064.69124162  .00002105  00000+0  44010-3 0  9994
2 35932  98.4409 319.1021 0005887 222.5546 137.5199 14.60893690820718
BEESAT-1                
1 35933U 09051C   25064.69741629  .00001792  00000+0  38046-3 0  9991
2 35933  98.4340 319.6294 0004172 236.5780 123.5021 14.60373701820772
ITUPSAT1                
1 35935U 09051E   25064.43043620  .00001819  00000+0  39594-3 0  9990
2 35935  98.4437 318.9751 0006358 249.3936 110.6581 14.59201526820348
TISAT 1                 
1 36799U 10035E   25064.69545891  .00019610  00000+0  11150-2 0  9993
2 36799  98.0638 333.0016 0005738  73.3369 286.8490 15.12912878796452
AEROCUBE 4.5A           
1 38767U 12048K   25064.93332875  .00030871  00000+0  99454-3 0  9995
2 38767  64.6497 182.8236 0107106 300.4964  58.5622 15.26603212300188
AEROCUBE 4.5B           
1 38768U 12048L   25065.14843447  .01562504  17062-2  17922-2 0  9994
2 38768  64.6234  67.1943 0021334 294.6455  65.2491 16.08598174301962
STRAND-1                
1 39090U 13009E   25064.57055331  .00000708  00000+0  25495-3 0  9992
2 39090  98.3813 251.7880 0008656 184.8327 175.2777 14.36674763629789
BRITE-AUSTRIA           
1 39091U 13009F   25065.10071386  .00000435  00000+0  16353-3 0  9991
2 39091  98.3868 251.5701 0010023 191.8389 168.2564 14.36213814629868
NEE-01 PEGASO           
1 39151U 13018B   25065.11497907  .00005043  00000+0  53174-3 0  9992
2 39151  98.0570 191.9792 0012871 262.2716  97.7040 14.89726397640927
ESTCUBE 1               
1 39161U 13021C   25065.11723429  .00003052  00000+0  41894-3 0  9992
2 39161  97.7925 129.6132 0009876 100.3906 259.8420 14.79063669635818
POPACS 1                
1 39268U 13055D   25064.79704369  .00053064 -75434-8  60679-3 0  9995
2 39268  80.9768 203.7391 0289978 310.5806  47.0508 15.24819555601432
POPACS 2                
1 39269U 13055E   25064.65111646  .00019001  00000+0  39259-3 0  9991
2 39269  80.9981 312.5791 0494191 237.2643 118.0019 14.71055055593841
POPACS 3                
1 39270U 13055F   25064.83668405  .00019911  00000+0  51132-3 0  9997
2 39270  81.0084  12.9435 0597061  45.8078 319.0589 14.44891452570647
ZACUBE-1 (TSHEPISOSAT)  
1 39417U 13066B   25064.87191296  .00010213  00000+0  91950-3 0  9993
2 39417  97.7691  22.5542 0046064  14.2650 345.9859 14.94982361610606
WNISAT-1                
1 39423U 13066H   25064.92482424  .00001872  00000+0  35757-3 0  9996
2 39423  97.6709 244.2806 0165287 266.4937  91.7346 14.56660336598522
TRITON-1                
1 39427U 13066M   25065.12438876  .00005783  00000+0  74868-3 0  9996
2 39427  97.8393 341.3616 0094980 317.0126  42.3691 14.78087774605043
DELFI-N3XT              
1 39428U 13066N   25064.83569746  .00013053  00000+0  13940-2 0  9997
2 39428  97.8360 343.6925 0087004 316.6706  42.7689 14.86144751604840
GOMX-1                  
1 39430U 13066Q   25065.08839259  .00003149  00000+0  49829-3 0  9998
2 39430  97.6973 289.5737 0134794 137.4943 223.6794 14.66979933601403
CUBEBUG-2 (LO-74)       
1 39440U 13066AA  25064.80538732  .00006838  00000+0  71392-3 0  9998
2 39440  97.8404  10.1719 0065240 134.4730 226.1848 14.88449016607180
NEE-02 KRYSAOR          
1 39441U 13066AB  25064.77225809  .00004092  00000+0  48304-3 0  9990
2 39441  97.8475   4.6535 0070543 161.9954 198.3783 14.83463707606677
FUNCUBE-1 (AO-73)       
1 39444U 13066AE  25064.83968640  .00014332  00000+0  11392-2 0  9991
2 39444  97.7559  26.6676 0041429 352.7651   7.2969 14.99867244609226
UWE-3                   
1 39446U 13066AG  25064.85432713  .00008287  00000+0  81101-3 0  9990
2 39446  97.8134  16.4604 0056876  76.9004 283.8554 14.91340594607636
BRITE-CA1 (TORONTO)     
1 40020U 14033L   25064.96175163  .00001680  00000+0  26773-3 0  9994
2 40020  97.9084 199.7721 0080178 336.3041  23.4482 14.71166101573449
DUCHIFAT-1              
1 40021U 14033M   25064.91626418  .00027787  00000+0  11991-2 0  9995
2 40021  98.1024  71.3243 0006934 293.0512  66.9991 15.22478031583736
NANOSATC-BR1            
1 40024U 14033Q   25064.87970832  .00018482  00000+0  10062-2 0  9995
2 40024  98.0896  56.4219 0005879  32.9341 327.2255 15.14480292582704
QB50P1                  
1 40025U 14033R   25064.88467432  .00014540  00000+0  94928-3 0  9999
2 40025  98.0763  42.3631 0012118  30.2631 329.9293 15.07902971582208
QB50P2                  
1 40032U 14033Y   25065.12171564  .00012591  00000+0  86606-3 0  9991
2 40032  98.0344  32.3128 0007895 337.1406  22.9467 15.06036142582510
PERSEUS-M2              
1 40037U 14033AD  25065.09574910  .00003660  00000+0  35675-3 0  9991
2 40037  97.9473   3.5725 0013901  55.2241 305.0284 14.93044742581374
PERSEUS-M1              
1 40039U 14033AF  25064.81166396  .00004062  00000+0  39593-3 0  9997
2 40039  97.9226 358.5541 0013653  55.0361 305.2138 14.92980221580689
POLYITAN-1              
1 40042U 14033AJ  25064.91256166  .00021286  00000+0  11598-2 0  9998
2 40042  98.0993  48.6823 0009344 343.4701  16.6223 15.14397143582792
TIGRISAT                
1 40043U 14033AK  25064.90281588  .00005114  00000+0  63394-3 0  9998
2 40043  97.7213 223.3748 0052628 168.3368 191.9078 14.82110007576185
AEROCUBE 6A             
1 40045U 14033AM  25064.93167473  .00011219  00000+0  11361-2 0  9998
2 40045  97.6834 235.5973 0044978 137.9066 222.5622 14.90344988576683
AEROCUBE 6B             
1 40046U 14033AN  25064.73072755  .00011672  00000+0  11514-2 0  9998
2 40046  97.6812 234.3924 0043627 132.6248 227.8662 14.91422203576733
CANX-4                  
1 40055U 14034C   25065.09076058  .00001916  00000+0  26162-3 0  9995
2 40055  98.3746 276.8310 0014257  74.8898 285.3889 14.79810487575293
CANX-5                  
1 40056U 14034D   25064.55308644  .00002027  00000+0  27630-3 0  9990
2 40056  98.3749 276.2876 0014248  76.6522 283.6276 14.79821242575216
UKUBE-1                 
1 40074U 14037F   25065.11547800  .00013211  00000+0  99468-3 0  9990
2 40074  98.3847  19.3275 0002016  66.7687 293.3747 15.02656580577992
BRITE-PL2 (HEWELIUSZ)   
1 40119U 14049B   25064.86736309  .00003300  00000+0  33255-3 0  9998
2 40119  97.8825 169.9948 0014314 218.1191 141.9016 14.91770510571558
AEROCUBE 5C             
1 40965U 15058B   25065.04246820  .00005126  00000+0  43815-3 0  9994
2 40965  64.7675 275.0010 0178022 229.9083 128.6308 14.87259937295918
AEROCUBE 7              
1 40966U 15058C   25064.97385228  .00007450  00000+0  59475-3 0  9993
2 40966  64.7641 265.9055 0170713 229.7051 128.9037 14.90180102296061
FOX-1A (AO-85)          
1 40967U 15058D   25064.93313606  .00004547  00000+0  39989-3 0  9993
2 40967  64.7757 290.1521 0174927 225.3629 133.3108 14.86751255 43845
SINOD-D 1               
1 40968U 15058E   25064.98091923  .00006803  00000+0  55395-3 0  9990
2 40968  64.7756 279.4863 0166010 224.3474 134.4243 14.90095289 46742
SNAP-3 ALICE            
1 40970U 15058G   25064.80406061  .00042632  00000+0  20011-2 0  9993
2 40970  64.7645 215.4075 0112855 223.9476 135.2632 15.13852064 45133
LMRST-SAT               
1 40971U 15058H   25064.99210934  .00004493  00000+0  39484-3 0  9994
2 40971  64.7756 285.6017 0176881 226.7533 131.8700 14.86568644 43858
SNAP-3 EDDIE            
1 40972U 15058J   25064.74541754  .00043677  00000+0  20228-2 0  9997
2 40972  64.7622 208.4170 0113270 224.9222 134.2695 15.14252098 47233
PROPCUBE 3              
1 40973U 15058K   25065.17103197  .00006454  00000+0  52883-3 0  9996
2 40973  64.7688 269.9419 0172111 228.3218 130.3057 14.89216776 44977
BISONSAT                
1 40974U 15058L   25064.82018291  .00024086  00000+0  14752-2 0  9991
2 40974  64.7637 232.7546 0139763 226.5943 132.3473 15.02300471 44912
SNAP-3 JIMI             
1 40975U 15058M   25064.86652066  .00012091  00000+0  87926-3 0  9997
2 40975  64.7666 253.6878 0158800 227.5263 131.2340 14.94517478 44035
PROPCUBE 1 (FLORA)      
1 40976U 15058N   25065.06925102  .00004057  00000+0  37152-3 0  9994
2 40976  64.7753 302.3297 0176146 228.2522 130.3416 14.85289611 46636
SINOD-D 3               
1 40977U 15058P   25065.00298342  .00005615  00000+0  47726-3 0  9997
2 40977  64.7733 292.5409 0167253 227.5271 131.1604 14.88599246 44921
HORYU-4                 
1 41340U 16012D   25064.64737066  .00030184  00000+0  97871-3 0  9998
2 41340  31.0001  54.4473 0007342 157.5505 202.5461 15.30762142498046
RAVAN                   
1 41849U 16067B   25064.61044201  .00021357  00000+0  82525-3 0  9993
2 41849  98.0548 265.9036 0009771 208.7398 151.3301 15.26233680455682
CELTEE 1                
1 41850U 16067C   25065.05551254  .00009241  00000+0  53000-3 0  9999
2 41850  98.1109 255.5031 0001635  56.6712 303.4673 15.12815561454937
